NORAD_CAT_ID,OBJECT_NAME,OBJECT_TYPE,EPOCH,MEAN_MOTION,ECCENTRICITY,INCLINATION,RA_OF_ASC_NODE,ARG_OF_PERICENTER,MEAN_ANOMALY,BSTAR,MEAN_MOTION_DOT,MEAN_MOTION_DDOT,TLE_LINE0,TLE_LINE1,TLE_LINE2,SEMIMAJOR_AXIS,PERIOD,APOGEE,PERIGEE,DECAYED
53414.0,STARLINK-4304,PAYLOAD,2023-11-01 11:52:42,15.08852488,0.0001511,53.2174,11.2005,88.3066,271.8099,0.00061804,9.565e-05,0.0,0 STARLINK-4304,1 53414U 22097AC  23305.49493950  .00009565  00000-0  61804-3 0  9990,2 53414  53.2174  11.2005 0001511  88.3066 271.8099 15.08852488 68930,6917.842,95.437,540.753,538.662,0.0
53414.0,STARLINK-4304,PAYLOAD,2023-11-01 21:25:01,15.08849235,0.0001586,53.2167,9.4153,92.5755,267.5419,0.00033945,5.12e-05,0.0,0 STARLINK-4304,1 53414U 22097AC  23305.89237854  .00005120  00000-0  33945-3 0  9991,2 53414  53.2167   9.4153 0001586  92.5755 267.5419 15.08849235 68999,6917.852,95.437,540.814,538.62,0.0
53414.0,STARLINK-4304,PAYLOAD,2023-11-02 13:18:52,15.08852934,0.0001489,53.2161,6.4405,89.7816,270.3347,0.00028009,4.174e-05,0.0,0 STARLINK-4304,1 53414U 22097AC  23306.55477465  .00004174  00000-0  28009-3 0  9992,2 53414  53.2161   6.4405 0001489  89.7816 270.3347 15.08852934 69092,6917.841,95.437,540.736,538.676,0.0
53414.0,STARLINK-4304,PAYLOAD,2023-11-02 21:15:48,15.08841341,0.0001534,53.218,4.9529,82.194,277.9226,5.9322e-05,6.56e-06,0.0,0 STARLINK-4304,1 53414U 22097AC  23306.88597839  .00000656  00000-0  59322-4 0  9990,2 53414  53.2180   4.9529 0001534  82.1940 277.9226 15.08841341 69144,6917.876,95.437,540.802,538.68,0.0
53414.0,STARLINK-4304,PAYLOAD,2023-11-02 22:51:11,15.08842097,0.0001664,53.216,4.6579,85.4956,274.6226,5.0591e-05,5.17e-06,0.0,0 STARLINK-4304,1 53414U 22097AC  23306.95221820  .00000517  00000-0  50591-4 0  9997,2 53414  53.2160   4.6579 0001664  85.4956 274.6226 15.08842097 68671,6917.874,95.437,540.89,538.588,0.0
53414.0,STARLINK-4304,PAYLOAD,2023-11-03 13:09:39,15.08846853,0.0001499,53.2158,1.9793,85.0631,275.0532,0.0001733,2.472e-05,0.0,0 STARLINK-4304,1 53414U 22097AC  23307.54837835  .00002472  00000-0  17330-3 0  9997,2 53414  53.2158   1.9793 0001499  85.0631 275.0532 15.08846853 69241,6917.859,95.437,540.761,538.687,0.0
53414.0,STARLINK-4304,PAYLOAD,2023-11-03 21:06:35,15.08840542,0.0001542,53.2166,0.4933,88.1445,271.9723,0.0002155,3.143e-05,0.0,0 STARLINK-4304,1 53414U 22097AC  23307.87958210  .00003143  00000-0  21550-3 0  9999,2 53414  53.2166   0.4933 0001542  88.1445 271.9723 15.08840542 69297,6917.879,95.438,540.81,538.677,0.0
53414.0,STARLINK-4304,PAYLOAD,2023-11-04 03:28:08,15.08837321,0.0001638,53.216,359.3038,85.6878,274.4301,0.0001388,1.922e-05,0.0,0 STARLINK-4304,1 53414U 22097AC  23308.14454403  .00001922  00000-0  13880-3 0  9995,2 53414  53.2160 359.3038 0001638  85.6878 274.4301 15.08837321 68853,6917.889,95.438,540.887,538.62,0.0
53414.0,STARLINK-4304,PAYLOAD,2023-11-04 09:49:40,15.0884648,0.0001476,53.2162,358.1137,93.0871,267.029,0.00028101,4.188e-05,0.0,0 STARLINK-4304,1 53414U 22097AC  23308.40950048  .00004188  00000-0  28101-3 0  9999,2 53414  53.2162 358.1137 0001476  93.0871 267.0290 15.08846480 69377,6917.861,95.437,540.747,538.705,0.0
53414.0,STARLINK-4304,PAYLOAD,2023-11-04 20:57:22,15.08850229,0.0001471,53.2162,356.0329,90.8446,269.2715,0.00032996,4.969e-05,0.0,0 STARLINK-4304,1 53414U 22097AC  23308.87317878  .00004969  00000-0  32996-3 0  9992,2 53414  53.2162 356.0329 0001471  90.8446 269.2715 15.08850229 68961,6917.849,95.437,540.732,538.697,0.0
53414.0,STARLINK-4304,PAYLOAD,2023-11-05 08:05:04,15.08850178,0.0001567,53.2169,353.9501,93.8498,266.2673,0.00035734,5.405e-05,0.0,0 STARLINK-4304,1 53414U 22097AC  23309.33685892  .00005405  00000-0  35734-3 0  9997,2 53414  53.2169 353.9501 0001567  93.8498 266.2673 15.08850178 69517,6917.849,95.437,540.798,538.63,0.0
53414.0,STARLINK-4304,PAYLOAD,2023-11-06 09:31:13,15.08864096,0.0001718,53.2167,349.1932,78.1529,281.9656,0.00042949,6.558e-05,0.0,0 STARLINK-4304,1 53414U 22097AC  23310.39668890  .00006558  00000-0  42949-3 0  9990,2 53414  53.2167 349.1932 0001718  78.1529 281.9656 15.08864096 69192,6917.807,95.436,540.86,538.483,0.0
53414.0,STARLINK-4304,PAYLOAD,2023-11-07 03:00:30,15.088062,0.0001386,53.2195,345.9242,95.9632,264.1518,-0.000569,-9.324e-05,0.0,0 STARLINK-4304,1 53414U 22097AC  23311.12535533 -.00009324  00000-0 -56900-3 0  9997,2 53414  53.2195 345.9242 0001386  95.9632 264.1518 15.08806200 69300,6917.984,95.44,540.808,538.89,0.0
53414.0,STARLINK-4304,PAYLOAD,2023-11-07 09:22:03,15.08814854,0.0001459,53.2188,344.7361,89.0936,271.0224,-0.00020915,-3.613e-05,0.0,0 STARLINK-4304,1 53414U 22097AC  23311.39032185 -.00003613  00000-0 -20915-3 0  9993,2 53414  53.2188 344.7361 0001459  89.0936 271.0224 15.08814854 69825,6917.957,95.439,540.832,538.813,0.0
53414.0,STARLINK-4304,PAYLOAD,2023-11-07 18:54:22,15.0882364,0.0001644,53.2181,342.9495,93.9113,266.2068,4.4015e-05,4.12e-06,0.0,0 STARLINK-4304,1 53414U 22097AC  23311.78776053  .00000412  00000-0  44015-4 0  9995,2 53414  53.2181 342.9495 0001644  93.9113 266.2068 15.08823640 69402,6917.93,95.439,540.933,538.658,0.0
53414.0,STARLINK-4304,PAYLOAD,2023-11-08 02:51:17,15.08841075,0.0001521,53.2185,341.4659,100.1322,259.9842,0.00032039,4.815e-05,0.0,0 STARLINK-4304,1 53414U 22097AC  23312.11895645  .00004815  00000-0  32039-3 0  9995,2 53414  53.2185 341.4659 0001521 100.1322 259.9842 15.08841075 69455,6917.877,95.437,540.794,538.69,0.0
53414.0,STARLINK-4304,PAYLOAD,2023-11-08 07:37:27,15.08850534,0.0001592,53.218,340.5706,95.4699,264.6474,0.00054099,8.335e-05,0.0,0 STARLINK-4304,1 53414U 22097AC  23312.31767369  .00008335  00000-0  54099-3 0  9999,2 53414  53.2180 340.5706 0001592  95.4699 264.6474 15.08850534 69964,6917.848,95.437,540.815,538.612,0.0
53414.0,STARLINK-4304,PAYLOAD,2023-11-08 18:45:08,15.08852606,0.0001564,53.2174,338.4935,91.4391,268.678,0.00061595,9.532e-05,0.0,0 STARLINK-4304,1 53414U 22097AC  23312.78135335  .00009532  00000-0  61595-3 0  9991,2 53414  53.2174 338.4935 0001564  91.4391 268.6780 15.08852606 70037,6917.842,95.437,540.789,538.625,0.0
53414.0,STARLINK-4304,PAYLOAD,2023-11-09 12:14:22,15.08879592,0.0001513,53.2177,335.2226,90.3487,269.7679,0.00086524,0.00013524,0.0,0 STARLINK-4304,1 53414U 22097AC  23313.50998123  .00013524  00000-0  86524-3 0  9999,2 53414  53.2177 335.2226 0001513  90.3487 269.7679 15.08879592 69665,6917.759,95.435,540.671,538.578,0.0
53414.0,STARLINK-4304,PAYLOAD,2023-11-09 18:35:55,15.0884376,0.0001463,53.2171,334.0255,85.154,274.9619,-6.035e-05,-1.248e-05,0.0,0 STARLINK-4304,1 53414U 22097AC  23313.77495099 -.00001248  00000-0 -60350-4 0  9994,2 53414  53.2171 334.0255 0001463  85.1540 274.9619 15.08843760 69709,6917.869,95.437,540.746,538.722,0.0
53414.0,STARLINK-4304,PAYLOAD,2023-11-10 10:29:46,15.08851555,0.0001541,53.2158,331.0551,83.2756,276.8411,0.00017052,2.428e-05,0.0,0 STARLINK-4304,1 53414U 22097AC  23314.43734693  .00002428  00000-0  17052-3 0  9993,2 53414  53.2158 331.0551 0001541  83.2756 276.8411 15.08851555 70282,6917.845,95.437,540.776,538.644,0.0
53414.0,STARLINK-4304,PAYLOAD,2023-11-10 18:26:42,15.08842547,0.0001388,53.2167,329.568,91.7836,268.3315,6.8671e-05,8.05e-06,0.0,0 STARLINK-4304,1 53414U 22097AC  23314.76854943  .00000805  00000-0  68671-4 0  9991,2 53414  53.2167 329.5680 0001388  91.7836 268.3315 15.08842547 70335,6917.873,95.437,540.698,538.777,0.0
53414.0,STARLINK-4304,PAYLOAD,2023-11-11 00:48:15,15.08838307,0.0001638,53.2161,328.3774,92.158,267.96,4.6886e-05,4.58e-06,0.0,0 STARLINK-4304,1 53414U 22097AC  23315.03351271  .00000458  00000-0  46886-4 0  9996,2 53414  53.2161 328.3774 0001638  92.1580 267.9600 15.08838307 69899,6917.886,95.438,540.884,538.617,0.0
53414.0,STARLINK-4304,PAYLOAD,2023-11-11 08:45:11,15.08844303,0.0001537,53.2154,326.8902,95.3128,264.804,0.00023551,3.463e-05,0.0,0 STARLINK-4304,1 53414U 22097AC  23315.36471112  .00003463  00000-0  23551-3 0  9991,2 53414  53.2154 326.8902 0001537  95.3128 264.8040 15.08844303 70426,6917.867,95.437,540.796,538.669,0.0
53414.0,STARLINK-4304,PAYLOAD,2023-11-12 07:00:35,15.08840865,0.0001657,53.2151,322.7276,93.3176,266.8006,0.00021706,3.168e-05,0.0,0 STARLINK-4304,1 53414U 22097AC  23316.29207576  .00003168  00000-0  21706-3 0  9997,2 53414  53.2151 322.7276 0001657  93.3176 266.8006 15.08840865 70081,6917.878,95.437,540.889,538.596,0.0
53414.0,STARLINK-4304,PAYLOAD,2023-11-13 10:02:07,15.08859657,0.0001685,53.2162,317.6713,98.4625,261.6558,0.0004798,7.36e-05,0.0,0 STARLINK-4304,1 53414U 22097AC  23317.41814735  .00007360  00000-0  47980-3 0  9993,2 53414  53.2162 317.6713 0001685  98.4625 261.6558 15.08859657 70251,6917.82,95.436,540.851,538.52,0.0
53414.0,STARLINK-4304,PAYLOAD,2023-11-14 03:31:22,15.08846402,0.0002196,53.2158,314.393,126.6777,233.4418,0.00010097,1.319e-05,0.0,0 STARLINK-4304,1 53414U 22097AC  23318.14678652  .00001319  00000-0  10097-3 0  9997,2 53414  53.2158 314.3930 0002196 126.6777 233.4418 15.08846402 70369,6917.861,95.437,541.245,538.207,0.0
53414.0,STARLINK-4304,PAYLOAD,2023-11-14 06:42:08,15.0884472,0.0001706,53.2172,313.8055,101.9911,258.1273,9.91e-05,1.29e-05,0.0,0 STARLINK-4304,1 53414U 22097AC  23318.27927027  .00001290  00000-0  99100-4 0  9995,2 53414  53.2172 313.8055 0001706 101.9911 258.1273 15.08844720 70868,6917.866,95.437,540.911,538.551,0.0
53414.0,STARLINK-4304,PAYLOAD,2023-11-14 16:14:27,15.08841644,0.0001574,53.2167,312.022,102.4452,257.6717,4.5281e-05,4.33e-06,0.0,0 STARLINK-4304,1 53414U 22097AC  23318.67671119  .00000433  00000-0  45281-4 0  9996,2 53414  53.2167 312.0220 0001574 102.4452 257.6717 15.08841644 70449,6917.875,95.437,540.829,538.651,0.0
53414.0,STARLINK-4304,PAYLOAD,2023-11-15 09:43:42,15.08842308,0.0001594,53.2165,308.7501,102.3843,257.7328,-1.1729e-05,-4.75e-06,0.0,0 STARLINK-4304,1 53414U 22097AC  23319.40535140 -.00000475  00000-0 -11729-4 0  9999,2 53414  53.2165 308.7501 0001594 102.3843 257.7328 15.08842308 71039,6917.873,95.437,540.841,538.636,0.0
